$$SOE
2459580.500000000, A.D. 2022-Jan-01 00:00:00.0000, 5.122147084452051E+09, -1.561296761662841E+09, -1.684534391597647E+09,
2459587.500000000, A.D. 2022-Jan-08 00:00:00.0000, 5.122799494172649E+09, -1.558265415812155E+09, -1.685389847880390E+09,
2459594.500000000, A.D. 2022-Jan-15 00:00:00.0000, 5.123450415127859E+09, -1.555233625721774E+09, -1.686244838639223E+09,
2459601.500000000, A.D. 2022-Jan-22 00:00:00.0000, 5.124099851062931E+09, -1.552201393720582E+09, -1.687099364017613E+09,
2459608.500000000, A.D. 2022-Jan-29 00:00:00.0000, 5.124747806302814E+09, -1.549168719661275E+09, -1.687953424052114E+09,
2459615.500000000, A.D. 2022-Feb-05 00:00:00.0000, 5.125394283545052E+09, -1.546135601592017E+09, -1.688807018524600E+09,
2459622.500000000, A.D. 2022-Feb-12 00:00:00.0000, 5.126039283826056E+09, -1.543102037496366E+09, -1.689660147099552E+09,
2459629.500000000, A.D. 2022-Feb-19 00:00:00.0000, 5.126682807335879E+09, -1.540068025732432E+09, -1.690512809431381E+09,
2459636.500000000, A.D. 2022-Feb-26 00:00:00.0000, 5.127324853770183E+09, -1.537033564894287E+09, -1.691365005180785E+09,
2459643.500000000, A.D. 2022-Mar-05 00:00:00.0000, 5.127965422378651E+09, -1.533998653712476E+09, -1.692216734005402E+09,
2459650.500000000, A.D. 2022-Mar-12 00:00:00.0000, 5.128604511931677E+09, -1.530963291059299E+09, -1.693067995550779E+09,
2459657.500000000, A.D. 2022-Mar-19 00:00:00.0000, 5.129242120676368E+09, -1.527927476030635E+09, -1.693918789446168E+09,
2459664.500000000, A.D. 2022-Mar-26 00:00:00.0000, 5.129878246304295E+09, -1.524891208110106E+09, -1.694769115307988E+09,
2459671.500000000, A.D. 2022-Apr-02 00:00:00.0000, 5.130512885998757E+09, -1.521854487471158E+09, -1.695618972761996E+09,
2459678.500000000, A.D. 2022-Apr-09 00:00:00.0000, 5.131146036833658E+09, -1.518817315412030E+09, -1.696468361508963E+09,
2459685.500000000, A.D. 2022-Apr-16 00:00:00.0000, 5.131777696881070E+09, -1.515779694269306E+09, -1.697317281413318E+09,
2459692.500000000, A.D. 2022-Apr-23 00:00:00.0000, 5.132407865758680E+09, -1.512741625725586E+09, -1.698165732409936E+09,
2459699.500000000, A.D. 2022-Apr-30 00:00:00.0000, 5.133036542746904E+09, -1.509703109756390E+09, -1.699013714241072E+09,
2459706.500000000, A.D. 2022-May-07 00:00:00.0000, 5.133663725538445E+09, -1.506664146189744E+09, -1.699861226465721E+09,
2459713.500000000, A.D. 2022-May-14 00:00:00.0000, 5.134289411009641E+09, -1.503624735840163E+09, -1.700708268620618E+09,
2459720.500000000, A.D. 2022-May-21 00:00:00.0000, 5.134913595982559E+09, -1.500584880458229E+09, -1.701554840284558E+09,
2459727.500000000, A.D. 2022-May-28 00:00:00.0000, 5.135536277499021E+09, -1.497544582454476E+09, -1.702400941080462E+09,
2459734.500000000, A.D. 2022-Jun-04 00:00:00.0000, 5.136157452883661E+09, -1.494503844710296E+09, -1.703246570666159E+09,
2459741.500000000, A.D. 2022-Jun-11 00:00:00.0000, 5.136777119740781E+09, -1.491462670473538E+09, -1.704091728726912E+09,
2459748.500000000, A.D. 2022-Jun-18 00:00:00.0000, 5.137395275923655E+09, -1.488421063325321E+09, -1.704936414972115E+09,
2459755.500000000, A.D. 2022-Jun-25 00:00:00.0000, 5.138011919505817E+09, -1.485379027250996E+09, -1.705780629141464E+09,
2459762.500000000, A.D. 2022-Jul-02 00:00:00.0000, 5.138627048888381E+09, -1.482336566880748E+09, -1.706624371038203E+09,
2459769.500000000, A.D. 2022-Jul-09 00:00:00.0000, 5.139240663433702E+09, -1.479293687722637E+09, -1.707467640610616E+09,
2459776.500000000, A.D. 2022-Jul-16 00:00:00.0000, 5.139852764570244E+09, -1.476250395305107E+09, -1.708310437988085E+09,
2459783.500000000, A.D. 2022-Jul-23 00:00:00.0000, 5.140463355170257E+09, -1.473206693151149E+09, -1.709152763263525E+09,
2459790.500000000, A.D. 2022-Jul-30 00:00:00.0000, 5.141072437284343E+09, -1.470162582937995E+09, -1.709994616303781E+09,
2459797.500000000, A.D. 2022-Aug-06 00:00:00.0000, 5.141680011831698E+09, -1.467118066194213E+09, -1.710835996864882E+09,
2459804.500000000, A.D. 2022-Aug-13 00:00:00.0000, 5.142286079422841E+09, -1.464073144779733E+09, -1.711676904711326E+09,
2459811.500000000, A.D. 2022-Aug-20 00:00:00.0000, 5.142890640745438E+09, -1.461027820652207E+09, -1.712517339636310E+09,
2459818.500000000, A.D. 2022-Aug-27 00:00:00.0000, 5.143493696581429E+09, -1.457982095646276E+09, -1.713357301448331E+09,
2459825.500000000, A.D. 2022-Sep-03 00:00:00.0000, 5.144095247703341E+09, -1.454935971376282E+09, -1.714196789955731E+09,
2459832.500000000, A.D. 2022-Sep-10 00:00:00.0000, 5.144695294739866E+09, -1.451889449238501E+09, -1.715035804955374E+09,
2459839.500000000, A.D. 2022-Sep-17 00:00:00.0000, 5.145293838040201E+09, -1.448842530514657E+09, -1.715874346228241E+09,
2459846.500000000, A.D. 2022-Sep-24 00:00:00.0000, 5.145890877597468E+09, -1.445795216627564E+09, -1.716712413551678E+09,
2459853.500000000, A.D. 2022-Oct-01 00:00:00.0000, 5.146486413271303E+09, -1.442747509571225E+09, -1.717550006752232E+09,
2459860.500000000, A.D. 2022-Oct-08 00:00:00.0000, 5.147080445716835E+09, -1.439699411993285E+09, -1.718387125793964E+09,
2459867.500000000, A.D. 2022-Oct-15 00:00:00.0000, 5.147672977088277E+09, -1.436650925730676E+09, -1.719223770718996E+09,
2459874.500000000, A.D. 2022-Oct-22 00:00:00.0000, 5.148264009335496E+09, -1.433602050482328E+09, -1.720059941378073E+09,
2459881.500000000, A.D. 2022-Oct-29 00:00:00.0000, 5.148853542591423E+09, -1.430552785212444E+09, -1.720895637392461E+09,
2459888.500000000, A.D. 2022-Nov-05 00:00:00.0000, 5.149441575749571E+09, -1.427503129543196E+09, -1.721730858316028E+09,
2459895.500000000, A.D. 2022-Nov-12 00:00:00.0000, 5.150028107266874E+09, -1.424453083869603E+09, -1.722565603713949E+09,
2459902.500000000, A.D. 2022-Nov-19 00:00:00.0000, 5.150613135472456E+09, -1.421402649150718E+09, -1.723399873170228E+09,
2459909.500000000, A.D. 2022-Nov-26 00:00:00.0000, 5.151196658644541E+09, -1.418351826774454E+09, -1.724233666280692E+09,
2459916.500000000, A.D. 2022-Dec-03 00:00:00.0000, 5.151778675021558E+09, -1.415300618507562E+09, -1.725066982647749E+09,
2459923.500000000, A.D. 2022-Dec-10 00:00:00.0000, 5.152359182792942E+09, -1.412249026512093E+09, -1.725899821879585E+09,
2459930.500000000, A.D. 2022-Dec-17 00:00:00.0000, 5.152938180094369E+09, -1.409197053453319E+09, -1.726732183598138E+09,
2459937.500000000, A.D. 2022-Dec-24 00:00:00.0000, 5.153515665116800E+09, -1.406144702764953E+09, -1.727564067471234E+09,
2459944.500000000, A.D. 2022-Dec-31 00:00:00.0000, 5.154091636686987E+09, -1.403091978964159E+09, -1.728395473292862E+09,
2459951.500000000, A.D. 2023-Jan-07 00:00:00.0000, 5.154666095442122E+09, -1.400038887053955E+09, -1.729226401044148E+09,
2459958.500000000, A.D. 2023-Jan-14 00:00:00.0000, 5.155239043631658E+09, -1.396985430516205E+09, -1.730056850713925E+09,
2459965.500000000, A.D. 2023-Jan-21 00:00:00.0000, 5.155810482901506E+09, -1.393931611067837E+09, -1.730886822078977E+09,
2459972.500000000, A.D. 2023-Jan-28 00:00:00.0000, 5.156380413728651E+09, -1.390877430375762E+09, -1.731716314796275E+09,
2459979.500000000, A.D. 2023-Feb-04 00:00:00.0000, 5.156948836297602E+09, -1.387822890702786E+09, -1.732545328540602E+09,
2459986.500000000, A.D. 2023-Feb-11 00:00:00.0000, 5.157515751023494E+09, -1.384767994678007E+09, -1.733373863038585E+09,
2459993.500000000, A.D. 2023-Feb-18 00:00:00.0000, 5.158081158658625E+09, -1.381712745014768E+09, -1.734201918060516E+09,
2460000.500000000, A.D. 2023-Feb-25 00:00:00.0000, 5.158645060245370E+09, -1.378657144337764E+09, -1.735029493407139E+09,
2460007.500000000, A.D. 2023-Mar-04 00:00:00.0000, 5.159207457017796E+09, -1.375601195100281E+09, -1.735856588899073E+09,
2460014.500000000, A.D. 2023-Mar-11 00:00:00.0000, 5.159768350280799E+09, -1.372544899590811E+09, -1.736683204371286E+09,
2460021.500000000, A.D. 2023-Mar-18 00:00:00.0000, 5.160327741314017E+09, -1.369488260078290E+09, -1.737509339680764E+09,
2460028.500000000, A.D. 2023-Mar-25 00:00:00.0000, 5.160885631504056E+09, -1.366431279142901E+09, -1.738334994749659E+09,
2460035.500000000, A.D. 2023-Apr-01 00:00:00.0000, 5.161442023129677E+09, -1.363373959798849E+09, -1.739160169650496E+09,
2460042.500000000, A.D. 2023-Apr-08 00:00:00.0000, 5.161996920184773E+09, -1.360316304183890E+09, -1.739984864576679E+09,
2460049.500000000, A.D. 2023-Apr-15 00:00:00.0000, 5.162550326902215E+09, -1.357258311921655E+09, -1.740809079574150E+09,
2460056.500000000, A.D. 2023-Apr-22 00:00:00.0000, 5.163102245787826E+09, -1.354199981208573E+09, -1.741632814449463E+09,
2460063.500000000, A.D. 2023-Apr-29 00:00:00.0000, 5.163652677899632E+09, -1.351141310372453E+09, -1.742456068920969E+09,
2460070.500000000, A.D. 2023-May-06 00:00:00.0000, 5.164201623612187E+09, -1.348082298121480E+09, -1.743278842706147E+09,
2460077.500000000, A.D. 2023-May-13 00:00:00.0000, 5.164749082889214E+09, -1.345022943377067E+09, -1.744101135528603E+09,
2460084.500000000, A.D. 2023-May-20 00:00:00.0000, 5.165295055298766E+09, -1.341963245181555E+09, -1.744922947106519E+09,
2460091.500000000, A.D. 2023-May-27 00:00:00.0000, 5.165839539964394E+09, -1.338903202710116E+09, -1.745744277142947E+09,
2460098.500000000, A.D. 2023-Jun-03 00:00:00.0000, 5.166382535509929E+09, -1.335842815360809E+09, -1.746565125321373E+09,
2460105.500000000, A.D. 2023-Jun-10 00:00:00.0000, 5.166924040021647E+09, -1.332782082936475E+09, -1.747385491310124E+09,
2460112.500000000, A.D. 2023-Jun-17 00:00:00.0000, 5.167464051116889E+09, -1.329721005978526E+09, -1.748205374789001E+09,
2460119.500000000, A.D. 2023-Jun-24 00:00:00.0000, 5.168002566439084E+09, -1.326659586196954E+09, -1.749024775523168E+09,
2460126.500000000, A.D. 2023-Jul-01 00:00:00.0000, 5.168539584832351E+09, -1.323597826168404E+09, -1.749843693440079E+09,
2460133.500000000, A.D. 2023-Jul-08 00:00:00.0000, 5.169075106521686E+09, -1.320535727480198E+09, -1.750662128488877E+09,
2460140.500000000, A.D. 2023-Jul-15 00:00:00.0000, 5.169609131021964E+09, -1.317473290150053E+09, -1.751480080396544E+09,
$$EOE